[{"OBJECT_NAME":"STARLINK-6064","OBJECT_ID":"2023-078AQ","EPOCH":"2026-03-09T22:48:04.955904","MEAN_MOTION":14.98321595,"ECCENTRICITY":0.00027596,"INCLINATION":70.0007,"RA_OF_ASC_NODE":323.7545,"ARG_OF_PERICENTER":270.2272,"MEAN_ANOMALY":89.8571,"EPHEMERIS_TYPE":0,"CLASSIFICATION_TYPE":"U","NORAD_CAT_ID":56805,"ELEMENT_SET_NO":999,"REV_AT_EPOCH":15321,"BSTAR":-1.0399114e-5,"MEAN_MOTION_DOT":-2.17e-6,"MEAN_MOTION_DDOT":0},{"OBJECT_NAME":"CZ-2C DEB","OBJECT_ID":"2013-035D","EPOCH":"2026-03-09T23:34:49.287360","MEAN_MOTION":14.88810695,"ECCENTRICITY":0.00555667,"INCLINATION":97.8149,"RA_OF_ASC_NODE":69.2801,"ARG_OF_PERICENTER":125.3803,"MEAN_ANOMALY":235.2624,"EPHEMERIS_TYPE":0,"CLASSIFICATION_TYPE":"U","NORAD_CAT_ID":39205,"ELEMENT_SET_NO":999,"REV_AT_EPOCH":67351,"BSTAR":0.0012724881,"MEAN_MOTION_DOT":0.0001222,"MEAN_MOTION_DDOT":0}]
